STARLINK-3613           
1 51810U 22017AU  23021.14613534  .00006215  00000+0  40838-3 0  9991
2 51810  53.2167  62.6968 0001743  94.6787 265.4404 15.08828898 51563
STARLINK-3569           
1 51811U 22017AV  23021.12585456  .00023325  00000+0  14789-2 0  9997
2 51811  53.2152  72.7813 0001245 109.7598 250.3528 15.08837158 51428
STARLINK-3610           
1 51812U 22017AW  23021.39909264  .00020215  00000+0  12842-2 0  9997
2 51812  53.2158  61.5596 0001754  85.0309 275.0883 15.08849909 51593
STARLINK-3552           
1 51813U 22017AX  23021.11301033  .00020713  00000+0  13154-2 0  9998
2 51813  53.2150  62.8444 0001394  86.1578 273.9574 15.08847504 51551
STARLINK-3599           
1 51814U 22017AY  23021.39173452  .00047098  00000+0  29566-2 0  9990
2 51814  53.2138  61.5992 0001568  87.0140 273.1031 15.08853066 51606
STARLINK-3604           
1 51815U 22017AZ  23021.39541357  .00032486  00000+0  20495-2 0  9991
2 51815  53.2152  61.5798 0001113  80.0536 280.0582 15.08846562 51606
STARLINK-3603           
1 51816U 22017BA  23020.39444871 -.00002499  00000+0 -13899-3 0  9998
2 51816  53.2152  66.0664 0001528  77.1709 282.9454 15.08839967 51383
STARLINK-3596           
1 51817U 22017BB  23021.15573593  .00001760  00000+0  14784-4 0  9991
2 51817  53.1948 301.5190 0003889 276.9214  83.1365 15.76716174 53258
STARLINK-3542           
1 51852U 22022A   23021.28408663  .00003895  00000+0  26269-3 0  9996
2 51852  53.2162 112.0698 0001819  98.9476 261.1722 15.08837703 50391
STARLINK-3539           
1 51853U 22022B   23021.48648891  .00033447  00000+0  21090-2 0  9990
2 51853  53.2154 111.1688 0001475  79.0368 281.0790 15.08851979 50375
STARLINK-3541           
1 51854U 22022C   23021.47912918  .00004440  00000+0  29689-3 0  9998
2 51854  53.2185 111.1931 0001587 104.5033 255.6135 15.08841274 50432
STARLINK-3545           
1 51855U 22022D   23021.47175534 -.00002515  00000+0 -13995-3 0  9990
2 51855  53.2174 111.2414 0003577  13.0492 347.0592 15.08834038 50389
STARLINK-3568           
1 51856U 22022E   23021.27673431 -.00000504  00000+0 -13616-4 0  9995
2 51856  53.2162 112.1055 0001069  87.0665 273.0449 15.08838921 50435
STARLINK-3571           
1 51857U 22022F   23021.26568617  .00001095  00000+0  86888-4 0  9999
2 51857  53.2154 112.1545 0001350  96.2502 263.8643 15.08839718 50401
STARLINK-3563           
1 51858U 22022G   23021.26936791  .00013424  00000+0  86000-3 0  9996
2 51858  53.2156 112.1408 0000851  89.0881 271.0209 15.08836037 50407
STARLINK-3560           
1 51859U 22022H   23020.95381311  .00005513  00000+0  36421-3 0  9996
2 51859  53.2186 103.5543 0001681  89.8201 270.2984 15.08837908 50499
STARLINK-3559           
1 51860U 22022J   23020.96117813  .00008981  00000+0  58175-3 0  9995
2 51860  53.2182 103.5187 0002426  93.2416 266.8854 15.08832764 50454
STARLINK-3562           
1 51861U 22022K   23021.21141703  .00026212  00000+0  16580-2 0  9990
2 51861  53.2160 102.3901 0002033  85.2378 274.8846 15.08858860 50471
STARLINK-3508           
1 51862U 22022L   23021.42116732 -.00000552  00000+0 -16576-4 0  9996
2 51862  53.2166 101.4641 0001378  82.6071 277.5078 15.08837149 50576
STARLINK-3555           
1 51863U 22022M   23021.46900857  .00032715  00000+0  20634-2 0  9992
2 51863  53.2153 101.2477 0001253  91.8885 268.2251 15.08852521 50521
STARLINK-3548           
1 51864U 22022N   23021.48004824  .00001696  00000+0  12462-3 0  9999
2 51864  53.2152 101.2000 0001428 100.7992 259.3161 15.08844780 50570
STARLINK-3503           
1 51865U 22022P   23021.19669632 -.00000953  00000+0 -41796-4 0  9992
2 51865  53.2173 102.4683 0002194 104.1331 255.9905 15.08828853 50481
STARLINK-3553           
1 51866U 22022Q   23020.47908815  .00004160  00000+0  27930-3 0  9997
2 51866  53.2177 105.6855 0002156 105.5496 254.5734 15.08842365 50374
STARLINK-3590           
1 51867U 22022R   23021.45797200  .00025362  00000+0  16054-2 0  9992
2 51867  53.2152 101.2900 0001582  94.2122 265.9051 15.08850298 50522
STARLINK-3578           
1 51868U 22022S   23021.20036970  .00012219  00000+0  78431-3 0  9991
2 51868  53.2153 102.4473 0001394  88.0474 272.0678 15.08847524 50481
STARLINK-3588           
1 51869U 22022T   23021.44693215  .00000702  00000+0  62201-4 0  9992
2 51869  53.2155 101.3452 0001476 110.4678 249.6473 15.08842889 50523
STARLINK-3591           
1 51870U 22022U   23020.46068743 -.00000342  00000+0 -33712-5 0  9995
2 51870  53.2158 105.7678 0001864 105.3968 254.7230 15.08842578 50424
STARLINK-3567           
1 51871U 22022V   23021.44325074  .00007535  00000+0  49092-3 0  9993
2 51871  53.2159 101.3657 0001612  96.5866 263.5310 15.08844956 50568
STARLINK-3554           
1 51872U 22022W   23021.45061009  .00017018  00000+0  10844-2 0  9999
2 51872  53.2153 101.3352 0001621 120.0592 240.0561 15.08852813 50529
STARLINK-3582           
1 51873U 22022X   23021.23349130 -.00000326  00000+0 -23608-5 0  9991
2 51873  53.2179 102.2997 0001808 106.8202 253.2988 15.08836960 50490
STARLINK-3574           
1 51874U 22022Y   23021.50581062  .00020470  00000+0  12999-2 0  9992
2 51874  53.2142 101.0860 0001224  83.2881 276.8251 15.08856079 50521
STARLINK-3585           
1 51875U 22022Z   23021.22708236  .00000090  00000+0  23725-4 0  9993
2 51875  53.2134 102.3346 0001497  93.5615 266.5548 15.08841904 50499
STARLINK-3583           
1 51876U 22022AA  23021.23717039  .00033122  00000+0  20885-2 0  9990
2 51876  53.2171 102.2786 0002003  76.9124 283.2092 15.08855736 50490
STARLINK-3556           
1 51877U 22022AB  23021.21968977  .00007812  00000+0  50849-3 0  9999
2 51877  53.2169  92.3650 0001063  95.4784 264.6330 15.08831448 50627
STARLINK-3575           
1 51878U 22022AC  23021.22982050  .00009679  00000+0  62540-3 0  9993
2 51878  53.2137 102.3241 0001269  73.0644 287.0487 15.08840350 50495
STARLINK-3572           
1 51879U 22022AD  23021.21233201  .00017856  00000+0  11374-2 0  9994
2 51879  53.2178  92.3965 0001221  77.0218 283.0910 15.08831927 50623
STARLINK-3566           
1 51880U 22022AE  23021.45892695  .00017026  00000+0  10851-2 0  9998
2 51880  53.2152 101.2841 0001797  87.4700 272.6497 15.08845136 50529
STARLINK-3504           
1 51881U 22022AF  23021.46992991  .00017321  00000+0  11034-2 0  9992
2 51881  53.2164  91.2438 0001197  91.2657 268.8472 15.08849010 50717
STARLINK-3570           
1 51882U 22022AG  23020.48736391  .00001368  00000+0  10403-3 0  9998
2 51882  53.2169  95.6373 0001998  90.9818 269.1403 15.08833420 50562
STARLINK-3576           
1 51883U 22022AH  23020.93360528  .00012767  00000+0  81872-3 0  9997
2 51883  53.2178  93.6473 0001687  84.7272 275.3913 15.08843851 50577
STARLINK-3577           
1 51884U 22022AJ  23021.20864491 -.00002224  00000+0 -12172-3 0  9993
2 51884  53.2171  92.4084 0000915  97.1253 262.9843 15.08835325 50702
STARLINK-3584           
1 51885U 22022AK  23021.45889257  .00016400  00000+0  10462-2 0  9996
2 51885  53.2157  91.2955 0001231  94.7531 265.3601 15.08837732 50652
STARLINK-3565           
1 51886U 22022AL  23021.20128676 -.00003928  00000+0 -22894-3 0  9997
2 51886  53.2140  92.4472 0001342  90.9563 269.1583 15.08828097 50620
STARLINK-3551           
1 51887U 22022AM  23020.46160962  .00011716  00000+0  75331-3 0  9995
2 51887  53.2156  95.7695 0000963  84.8370 275.2732 15.08822370 50506
STARLINK-3536           
1 51888U 22022AN  23021.19761465  .00013853  00000+0  88666-3 0  9991
2 51888  53.2159  92.4619 0001427  81.8137 278.3017 15.08844863 50628
STARLINK-3547           
1 51889U 22022AP  23020.98049484  .00016577  00000+0  10570-2 0  9992
2 51889  53.2133  93.4415 0001875  78.4562 281.6641 15.08847057 50580
STARLINK-3519           
1 51890U 22022AQ  23021.45152784  .00030661  00000+0  19354-2 0  9994
2 51890  53.2145  91.3279 0000893  87.1803 272.9291 15.08854811 50652
STARLINK-3549           
1 51891U 22022AR  23021.44048872  .00017270  00000+0  11004-2 0  9991
2 51891  53.2151  91.3745 0001711  73.5601 286.5579 15.08842786 50707
STARLINK-3587           
1 51892U 22022AS  23021.18289467  .00009838  00000+0  63535-3 0  9998
2 51892  53.2155  92.5397 0002335  75.1840 284.9411 15.08838297 50613
STARLINK-3579           
1 51893U 22022AT  23021.43311762 -.00004078  00000+0 -23823-3 0  9990
2 51893  53.2160  91.4082 0001680  72.6389 287.4787 15.08840950 50715
STARLINK-3595           
1 51894U 22022AU  23021.23808661  .00013729  00000+0  87894-3 0  9997
2 51894  53.2157  92.2855 0001291 103.1634 256.9502 15.08842786 50681
STARLINK-3594           
1 51895U 22022AV  23021.23073208  .00005510  00000+0  36411-3 0  9997
2 51895  53.2158  92.3160 0001818 108.5092 251.6098 15.08830850 50620
STARLINK-3593           
1 51896U 22022AW  23021.43040783  .00027059  00000+0  17114-2 0  9992
2 51896  53.2150  91.4219 0001327  93.5700 266.5444 15.08846791 50702
STARLINK-3598           
1 51897U 22022AX  23021.49200101  .00000105  00000+0  24723-4 0  9990
2 51897  53.2151  91.1442 0003006  21.2681 338.8436 15.08828579 50664
STARLINK-3597           
1 51898U 22022AY  23021.48832783  .00017081  00000+0  10884-2 0  9999
2 51898  53.2162  91.1598 0001254 103.7836 256.3296 15.08848987 50719
STARLINK-3700           
1 51956U 22025A   23021.44509615 -.00000475  00000+0 -11759-4 0  9993
2 51956  53.2185 121.3550 0002224  95.2932 264.8314 15.08833869 49696
STARLINK-3694           
1 51957U 22025B   23021.29421547 -.00000012  00000+0  17330-4 0  9991
2 51957  53.2148 122.0214 0001072 100.0640 260.0473 15.08837496 49696
STARLINK-3692           
1 51958U 22025C   23021.24268619  .00009442  00000+0  61020-3 0  9995
2 51958  53.2166 122.2619 0002106  96.9706 263.1526 15.08859799 49663
STARLINK-3704           
1 51959U 22025D   23021.43037680  .00020283  00000+0  12889-2 0  9993
2 51959  53.2170 121.4042 0001749  78.9987 281.1202 15.08837544 49691
STARLINK-3691           
1 51960U 22025E   23021.42299886  .00001819  00000+0  13231-3 0  9999
2 51960  53.2183 121.4492 0002414 102.3701 257.7562 15.08864567 49695
